{
  "type": "FeatureCollection",
  "features": [
    {
      "type": "Feature",
      "properties": {
        "norad_id": 29876,
        "name": "FENGYUN 1C DEB",
        "group": "fengyun-1c-debris",
        "lat": -8.370777801286405,
        "lon": -153.11925264530697,
        "alt_km": 863.8227223731974,
        "timestamp": "2025-12-02T23:34:15.788347+00:00",
        "meta_object_name": "FENGYUN 1C DEB",
        "meta_object_id": "1999-025FW",
        "meta_epoch": "2025-12-02T09:28:18.082272",
        "meta_mean_motion": 14.20286929,
        "meta_eccentricity": 0.006205,
        "meta_inclination": 98.3348,
        "meta_ra_of_asc_node": 27.5631,
        "meta_arg_of_pericenter": 47.2808,
        "meta_mean_anomaly": 18.5702,
        "meta_ephemeris_type": 0,
        "meta_classification_type": "U",
        "meta_norad_cat_id": 29876,
        "meta_element_set_no": 999,
        "meta_rev_at_epoch": 97770,
        "meta_bstar": 0.00019029,
        "meta_mean_motion_dot": 3.75e-06,
        "meta_mean_motion_ddot": 0,
        "tle_line1": "1 29876U 99025FW  25336.39465373  .00000375  00000+0  19029-3 0  9994",
        "tle_line2": "2 29876  98.3348  27.5631 0062050  47.2808  18.5702 14.20286929977701"
      },
      "geometry": {
        "type": "Point",
        "coordinates": [
          -153.11925264530697,
          -8.370777801286405
        ]
      }
    },
    {
      "type": "Feature",
      "properties": {
        "norad_id": 29877,
        "name": "FENGYUN 1C DEB",
        "group": "fengyun-1c-debris",
        "lat": -69.4006125200285,
        "lon": 139.00658585651922,
        "alt_km": 783.9037973988688,
        "timestamp": "2025-12-02T23:34:15.788358+00:00",
        "meta_object_name": "FENGYUN 1C DEB",
        "meta_object_id": "1999-025FX",
        "meta_epoch": "2025-12-02T00:48:16.965216",
        "meta_mean_motion": 14.24752417,
        "meta_eccentricity": 0.00455351,
        "meta_inclination": 98.5374,
        "meta_ra_of_asc_node": 341.6407,
        "meta_arg_of_pericenter": 250.1871,
        "meta_mean_anomaly": 178.2263,
        "meta_ephemeris_type": 0,
        "meta_classification_type": "U",
        "meta_norad_cat_id": 29877,
        "meta_element_set_no": 999,
        "meta_rev_at_epoch": 97821,
        "meta_bstar": 0.00054315951,
        "meta_mean_motion_dot": 1.236e-05,
        "meta_mean_motion_ddot": 0,
        "tle_line1": "1 29877U 99025FX  25336.03352969  .00001236  00000+0  54316-3 0  9997",
        "tle_line2": "2 29877  98.5374 341.6407 0045535 250.1871 178.2263 14.24752417978215"
      },
      "geometry": {
        "type": "Point",
        "coordinates": [
          139.00658585651922,
          -69.4006125200285
        ]
      }
    },
    {
      "type": "Feature",
      "properties": {
        "norad_id": 29878,
        "name": "FENGYUN 1C DEB",
        "group": "fengyun-1c-debris",
        "lat": -49.91727674264717,
        "lon": -37.91543932059337,
        "alt_km": 532.6438905097557,
        "timestamp": "2025-12-02T23:34:15.788368+00:00",
        "meta_object_name": "FENGYUN 1C DEB",
        "meta_object_id": "1999-025FY",
        "meta_epoch": "2025-12-02T11:23:27.047040",
        "meta_mean_motion": 15.06227359,
        "meta_eccentricity": 0.003345,
        "meta_inclination": 96.9517,
        "meta_ra_of_asc_node": 149.9629,
        "meta_arg_of_pericenter": 211.3758,
        "meta_mean_anomaly": 148.5476,
        "meta_ephemeris_type": 0,
        "meta_classification_type": "U",
        "meta_norad_cat_id": 29878,
        "meta_element_set_no": 999,
        "meta_rev_at_epoch": 98493,
        "meta_bstar": 0.0082428,
        "meta_mean_motion_dot": 0.00124315,
        "meta_mean_motion_ddot": 0,
        "tle_line1": "1 29878U 99025FY  25336.47461860  .00124315  00000+0  82428-2 0  9995",
        "tle_line2": "2 29878  96.9517 149.9629 0033450 211.3758 148.5476 15.06227359984933"
      },
      "geometry": {
        "type": "Point",
        "coordinates": [
          -37.91543932059337,
          -49.91727674264717
        ]
      }
    },
    {
      "type": "Feature",
      "properties": {
        "norad_id": 29880,
        "name": "FENGYUN 1C DEB",
        "group": "fengyun-1c-debris",
        "lat": 28.439100342833374,
        "lon": 81.09216939291596,
        "alt_km": 757.3150440300287,
        "timestamp": "2025-12-02T23:34:15.788378+00:00",
        "meta_object_name": "FENGYUN 1C DEB",
        "meta_object_id": "1999-025GA",
        "meta_epoch": "2025-12-02T06:22:29.540352",
        "meta_mean_motion": 13.93860778,
        "meta_eccentricity": 0.0231025,
        "meta_inclination": 98.1938,
        "meta_ra_of_asc_node": 255.9806,
        "meta_arg_of_pericenter": 130.8374,
        "meta_mean_anomaly": 25.9574,
        "meta_ephemeris_type": 0,
        "meta_classification_type": "U",
        "meta_norad_cat_id": 29880,
        "meta_element_set_no": 999,
        "meta_rev_at_epoch": 95416,
        "meta_bstar": 0.0010458,
        "meta_mean_motion_dot": 1.686e-05,
        "meta_mean_motion_ddot": 0,
        "tle_line1": "1 29880U 99025GA  25336.26561968  .00001686  00000+0  10458-2 0  9994",
        "tle_line2": "2 29880  98.1938 255.9806 0231025 130.8374  25.9574 13.93860778954160"
      },
      "geometry": {
        "type": "Point",
        "coordinates": [
          81.09216939291596,
          28.439100342833374
        ]
      }
    },
    {
      "type": "Feature",
      "properties": {
        "norad_id": 29881,
        "name": "FENGYUN 1C DEB",
        "group": "fengyun-1c-debris",
        "lat": 3.300906957544678,
        "lon": -50.29039817547885,
        "alt_km": 1047.3771319337702,
        "timestamp": "2025-12-02T23:34:15.788388+00:00",
        "meta_object_name": "FENGYUN 1C DEB",
        "meta_object_id": "1999-025GB",
        "meta_epoch": "2025-12-02T10:08:18.765888",
        "meta_mean_motion": 13.59551933,
        "meta_eccentricity": 0.0291627,
        "meta_inclination": 98.7211,
        "meta_ra_of_asc_node": 309.7177,
        "meta_arg_of_pericenter": 98.6127,
        "meta_mean_anomaly": 50.3069,
        "meta_ephemeris_type": 0,
        "meta_classification_type": "U",
        "meta_norad_cat_id": 29881,
        "meta_element_set_no": 999,
        "meta_rev_at_epoch": 93094,
        "meta_bstar": 0.0023226,
        "meta_mean_motion_dot": 2.242e-05,
        "meta_mean_motion_ddot": 0,
        "tle_line1": "1 29881U 99025GB  25336.42243942  .00002242  00000+0  23226-2 0  9998",
        "tle_line2": "2 29881  98.7211 309.7177 0291627  98.6127  50.3069 13.59551933930944"
      },
      "geometry": {
        "type": "Point",
        "coordinates": [
          -50.29039817547885,
          3.300906957544678
        ]
      }
    },
    {
      "type": "Feature",
      "properties": {
        "norad_id": 29884,
        "name": "FENGYUN 1C DEB",
        "group": "fengyun-1c-debris",
        "lat": 17.11985273778894,
        "lon": 6.246261304935101,
        "alt_km": 784.8105881300908,
        "timestamp": "2025-12-02T23:34:15.788399+00:00",
        "meta_object_name": "FENGYUN 1C DEB",
        "meta_object_id": "1999-025GE",
        "meta_epoch": "2025-12-02T01:56:00.569760",
        "meta_mean_motion": 14.40225225,
        "meta_eccentricity": 0.00444141,
        "meta_inclination": 99.6044,
        "meta_ra_of_asc_node": 8.2256,
        "meta_arg_of_pericenter": 167.3722,
        "meta_mean_anomaly": 218.5427,
        "meta_ephemeris_type": 0,
        "meta_classification_type": "U",
        "meta_norad_cat_id": 29884,
        "meta_element_set_no": 999,
        "meta_rev_at_epoch": 98396,
        "meta_bstar": 0.00078814788,
        "meta_mean_motion_dot": 2.47e-05,
        "meta_mean_motion_ddot": 0,
        "tle_line1": "1 29884U 99025GE  25336.08056215  .00002470  00000+0  78815-3 0  9996",
        "tle_line2": "2 29884  99.6044   8.2256 0044414 167.3722 218.5427 14.40225225983964"
      },
      "geometry": {
        "type": "Point",
        "coordinates": [
          6.246261304935101,
          17.11985273778894
        ]
      }
    },
    {
      "type": "Feature",
      "properties": {
        "norad_id": 29885,
        "name": "FENGYUN 1C DEB",
        "group": "fengyun-1c-debris",
        "lat": 81.25686259550349,
        "lon": 165.4848968230228,
        "alt_km": 853.2684517954585,
        "timestamp": "2025-12-02T23:34:15.788409+00:00",
        "meta_object_name": "FENGYUN 1C DEB",
        "meta_object_id": "1999-025GF",
        "meta_epoch": "2025-12-02T10:06:48.463200",
        "meta_mean_motion": 14.13572595,
        "meta_eccentricity": 0.0117747,
        "meta_inclination": 98.354,
        "meta_ra_of_asc_node": 272.1286,
        "meta_arg_of_pericenter": 194.0078,
        "meta_mean_anomaly": 288.0128,
        "meta_ephemeris_type": 0,
        "meta_classification_type": "U",
        "meta_norad_cat_id": 29885,
        "meta_element_set_no": 999,
        "meta_rev_at_epoch": 97311,
        "meta_bstar": 0.00019038,
        "meta_mean_motion_dot": 3.43e-06,
        "meta_mean_motion_ddot": 0,
        "tle_line1": "1 29885U 99025GF  25336.42139425  .00000343  00000+0  19038-3 0  9999",
        "tle_line2": "2 29885  98.3540 272.1286 0117747 194.0078 288.0128 14.13572595973119"
      },
      "geometry": {
        "type": "Point",
        "coordinates": [
          165.4848968230228,
          81.25686259550349
        ]
      }
    }
  ]
}